NORAD_CAT_ID,OBJECT_NAME,OBJECT_TYPE,EPOCH,MEAN_MOTION,ECCENTRICITY,INCLINATION,RA_OF_ASC_NODE,ARG_OF_PERICENTER,MEAN_ANOMALY,BSTAR,MEAN_MOTION_DOT,MEAN_MOTION_DDOT,TLE_LINE0,TLE_LINE1,TLE_LINE2,SEMIMAJOR_AXIS,PERIOD,APOGEE,PERIGEE,DECAYED
53259.0,STARLINK-4140,PAYLOAD,2023-12-30 19:04:02,15.08834771,0.0001257,53.2163,184.6324,94.3711,265.7425,7.9508e-05,9.78e-06,0.0,0 STARLINK-4140,1 53259U 22086T   23364.79447660  .00000978  00000-0  79508-4 0  9990,2 53259  53.2163 184.6324 0001257  94.3711 265.7425 15.08834771 80311,6917.896,95.438,540.631,538.892,0.0
53259.0,STARLINK-4140,PAYLOAD,2023-12-31 18:54:49,15.08839797,0.0001255,53.2164,180.1715,92.5297,267.5839,8.1343e-05,1.007e-05,0.0,0 STARLINK-4140,1 53259U 22086T   23365.78807597  .00001007  00000-0  81343-4 0  9993,2 53259  53.2164 180.1715 0001255  92.5297 267.5839 15.08839797 80282,6917.881,95.438,540.614,538.878,0.0
53259.0,STARLINK-4140,PAYLOAD,2023-12-31 22:05:36,15.08838448,0.0001251,53.2162,179.5774,90.9583,269.1552,6.584e-05,7.6e-06,0.0,0 STARLINK-4140,1 53259U 22086T   23365.92055706  .00000760  00000-0  65840-4 0  9995,2 53259  53.2162 179.5774 0001251  90.9583 269.1552 15.08838448 80487,6917.885,95.438,540.616,538.885,0.0
53259.0,STARLINK-4140,PAYLOAD,2024-01-01 10:48:41,15.08836146,0.0001248,53.2162,177.1984,90.5665,269.547,5.6414e-05,6.1e-06,0.0,0 STARLINK-4140,1 53259U 22086T   24001.45048053  .00000610  00000-0  56414-4 0  9999,2 53259  53.2162 177.1984 0001248  90.5665 269.5470 15.08836146 80562,6917.892,95.438,540.621,538.894,0.0
53259.0,STARLINK-4140,PAYLOAD,2024-01-01 17:10:13,15.08838202,0.0001224,53.2162,176.0094,90.8201,269.2932,6.4722e-05,7.42e-06,0.0,0 STARLINK-4140,1 53259U 22086T   24001.71543901  .00000742  00000-0  64722-4 0  9997,2 53259  53.2162 176.0094 0001224  90.8201 269.2932 15.08838202 80605,6917.886,95.438,540.598,538.904,0.0
53259.0,STARLINK-4140,PAYLOAD,2024-01-02 10:39:28,15.08840684,0.0001216,53.2161,172.7386,90.3166,269.7965,5.4594e-05,5.81e-06,0.0,0 STARLINK-4140,1 53259U 22086T   24002.44407884  .00000581  00000-0  54594-4 0  9994,2 53259  53.2161 172.7386 0001216  90.3166 269.7965 15.08840684 80537,6917.878,95.438,540.585,538.902,0.0
53259.0,STARLINK-4140,PAYLOAD,2024-01-02 18:36:23,15.08842208,0.0001233,53.2162,171.2517,87.8864,272.227,6.2017e-05,6.99e-06,0.0,0 STARLINK-4140,1 53259U 22086T   24002.77527754  .00000699  00000-0  62017-4 0  9998,2 53259  53.2162 171.2517 0001233  87.8864 272.2270 15.08842208 80760,6917.874,95.437,540.592,538.886,0.0
53259.0,STARLINK-4140,PAYLOAD,2024-01-03 18:27:11,15.08837659,0.0001265,53.2163,166.7916,78.9754,281.1381,2.9848e-05,1.87e-06,0.0,0 STARLINK-4140,1 53259U 22086T   24003.76888282  .00000187  00000-0  29848-4 0  9991,2 53259  53.2163 166.7916 0001265  78.9754 281.1381 15.08837659 80730,6917.888,95.438,540.628,538.877,0.0
53259.0,STARLINK-4140,PAYLOAD,2024-01-04 13:31:49,15.088404,0.0001444,53.2164,163.2233,68.874,291.2406,4.6944e-05,4.59e-06,0.0,0 STARLINK-4140,1 53259U 22086T   24004.56376182  .00000459  00000-0  46944-4 0  9999,2 53259  53.2164 163.2233 0001444  68.8740 291.2406 15.08840400 81039,6917.879,95.438,540.743,538.745,0.0
53259.0,STARLINK-4140,PAYLOAD,2024-01-04 16:42:35,15.0884295,0.0001353,53.2163,162.6286,72.9665,287.1475,6.8668e-05,8.05e-06,0.0,0 STARLINK-4140,1 53259U 22086T   24004.69623905  .00000805  00000-0  68668-4 0  9993,2 53259  53.2163 162.6286 0001353  72.9665 287.1475 15.08842950 81054,6917.871,95.437,540.672,538.8,0.0
53259.0,STARLINK-4140,PAYLOAD,2024-01-05 10:11:49,15.08838502,0.0001295,53.2155,159.3593,75.2833,284.8302,5.9813e-05,6.64e-06,0.0,0 STARLINK-4140,1 53259U 22086T   24005.42488232  .00000664  00000-0  59813-4 0  9992,2 53259  53.2155 159.3593 0001295  75.2833 284.8302 15.08838502 80989,6917.885,95.438,540.646,538.854,0.0
53259.0,STARLINK-4140,PAYLOAD,2024-01-05 14:57:59,15.0883716,0.0001324,53.2159,158.4663,75.2183,284.8956,4.4554e-05,4.21e-06,0.0,0 STARLINK-4140,1 53259U 22086T   24005.62360403  .00000421  00000-0  44554-4 0  9990,2 53259  53.2159 158.4663 0001324  75.2183 284.8956 15.08837160 81190,6917.889,95.438,540.67,538.838,0.0
53259.0,STARLINK-4140,PAYLOAD,2024-01-05 16:33:22,15.08837748,0.0001342,53.2159,158.1688,74.3577,285.7563,4.8147e-05,4.78e-06,0.0,0 STARLINK-4140,1 53259U 22086T   24005.68984371  .00000478  00000-0  48147-4 0  9996,2 53259  53.2159 158.1688 0001342  74.3577 285.7563 15.08837748 81209,6917.887,95.438,540.681,538.824,0.0
53259.0,STARLINK-4140,PAYLOAD,2024-01-06 10:02:37,15.08839021,0.0001301,53.2158,154.8981,76.2828,283.8309,1.5849e-05,-3.6e-07,0.0,0 STARLINK-4140,1 53259U 22086T   24006.41848464 -.00000036  00000-0  15849-4 0  9994,2 53259  53.2158 154.8981 0001301  76.2828 283.8309 15.08839021 81317,6917.883,95.438,540.648,538.848,0.0
53259.0,STARLINK-4140,PAYLOAD,2024-01-06 19:34:55,15.08841607,0.0001274,53.2162,153.1126,85.7884,274.3254,3.2683e-05,2.32e-06,0.0,0 STARLINK-4140,1 53259U 22086T   24006.81592197  .00000232  00000-0  32683-4 0  9999,2 53259  53.2162 153.1126 0001274  85.7884 274.3254 15.08841607 81194,6917.875,95.437,540.622,538.859,0.0
53259.0,STARLINK-4140,PAYLOAD,2024-01-07 09:53:24,15.08835304,0.0001317,53.2165,150.4356,89.9719,270.1424,1.7018e-05,-1.7e-07,0.0,0 STARLINK-4140,1 53259U 22086T   24007.41208740 -.00000017  00000-0  17018-4 0  9991,2 53259  53.2165 150.4356 0001317  89.9719 270.1424 15.08835304 81283,6917.895,95.438,540.671,538.849,0.0
53259.0,STARLINK-4140,PAYLOAD,2024-01-07 14:39:33,15.08837671,0.0001308,53.2165,149.5435,91.8948,268.2193,3.5697e-05,2.8e-06,0.0,0 STARLINK-4140,1 53259U 22086T   24007.61080580  .00000280  00000-0  35697-4 0  9997,2 53259  53.2165 149.5435 0001308  91.8948 268.2193 15.08837671 81499,6917.888,95.438,540.657,538.848,0.0
53259.0,STARLINK-4140,PAYLOAD,2024-01-07 16:14:56,15.08838195,0.0001305,53.2166,149.2462,90.0556,270.0585,3.8547e-05,3.26e-06,0.0,0 STARLINK-4140,1 53259U 22086T   24007.67704553  .00000326  00000-0  38547-4 0  9994,2 53259  53.2166 149.2462 0001305  90.0556 270.0585 15.08838195 81500,6917.886,95.438,540.654,538.848,0.0
53259.0,STARLINK-4140,PAYLOAD,2024-01-08 14:30:20,15.0883832,0.000133,53.2169,145.0834,86.0914,274.023,3.8196e-05,3.2e-06,0.0,0 STARLINK-4140,1 53259U 22086T   24008.60440796  .00000320  00000-0  38196-4 0  9998,2 53259  53.2169 145.0834 0001330  86.0914 274.0230 15.08838320 81647,6917.886,95.438,540.671,538.83,0.0
53259.0,STARLINK-4140,PAYLOAD,2024-01-08 16:05:43,15.08839582,0.0001337,53.2169,144.7859,87.9991,272.1154,4.8096e-05,4.78e-06,0.0,0 STARLINK-4140,1 53259U 22086T   24008.67064684  .00000478  00000-0  48096-4 0  9997,2 53259  53.2169 144.7859 0001337  87.9991 272.1154 15.08839582 81478,6917.882,95.438,540.672,538.822,0.0
53259.0,STARLINK-4140,PAYLOAD,2024-01-09 14:21:07,15.08843663,0.0001336,53.2166,140.6234,93.943,266.1715,9.359e-05,1.202e-05,0.0,0 STARLINK-4140,1 53259U 22086T   24009.59800435  .00001202  00000-0  93590-4 0  9996,2 53259  53.2166 140.6234 0001336  93.9430 266.1715 15.08843663 81797,6917.869,95.437,540.658,538.81,0.0
53259.0,STARLINK-4140,PAYLOAD,2024-01-09 17:31:53,15.08848088,0.0001353,53.2168,140.0285,91.8556,268.2591,0.00012946,1.773e-05,0.0,0 STARLINK-4140,1 53259U 22086T   24009.73048051  .00001773  00000-0  12946-3 0  9998,2 53259  53.2168 140.0285 0001353  91.8556 268.2591 15.08848088 81638,6917.856,95.437,540.657,538.785,0.0
53259.0,STARLINK-4140,PAYLOAD,2024-01-10 17:22:41,15.08842808,0.0001329,53.2167,135.5677,88.1637,271.9508,7.5089e-05,9.07e-06,0.0,0 STARLINK-4140,1 53259U 22086T   24010.72408721  .00000907  00000-0  75089-4 0  9999,2 53259  53.2167 135.5677 0001329  88.1637 271.9508 15.08842808 81782,6917.872,95.437,540.656,538.817,0.0
53259.0,STARLINK-4140,PAYLOAD,2024-01-11 14:02:41,15.0884485,0.0001432,53.2168,131.7025,78.8423,281.273,4.8326e-05,4.81e-06,0.0,0 STARLINK-4140,1 53259U 22086T   24011.58520795  .00000481  00000-0  48326-4 0  9991,2 53259  53.2168 131.7025 0001432  78.8423 281.2730 15.08844850 82097,6917.866,95.437,540.721,538.74,0.0
53259.0,STARLINK-4140,PAYLOAD,2024-01-11 17:13:27,15.08853129,0.0001467,53.2174,131.1058,77.7266,282.389,0.00014082,1.955e-05,0.0,0 STARLINK-4140,1 53259U 22086T   24011.71768011  .00001955  00000-0  14082-3 0  9999,2 53259  53.2174 131.1058 0001467  77.7266 282.3890 15.08853129 82116,6917.84,95.437,540.72,538.69,0.0
53259.0,STARLINK-4140,PAYLOAD,2024-01-12 12:18:06,15.08839693,0.0001392,53.2163,127.5412,76.1982,283.9165,4.5152e-05,4.31e-06,0.0,0 STARLINK-4140,1 53259U 22086T   24012.51257225  .00000431  00000-0  45152-4 0  9999,2 53259  53.2163 127.5412 0001392  76.1982 283.9165 15.08839693 82057,6917.881,95.438,540.709,538.783,0.0
53259.0,STARLINK-4140,PAYLOAD,2024-01-12 13:53:29,15.08840739,0.0001427,53.2162,127.2442,73.9156,286.1993,5.3927e-05,5.7e-06,0.0,0 STARLINK-4140,1 53259U 22086T   24012.57881150  .00000570  00000-0  53927-4 0  9998,2 53259  53.2162 127.2442 0001427  73.9156 286.1993 15.08840739 82241,6917.878,95.438,540.73,538.756,0.0
53259.0,STARLINK-4140,PAYLOAD,2024-01-13 13:44:15,15.0885153,0.0001362,53.2163,122.7834,80.1292,279.9853,3.2525e-05,2.3e-06,0.0,0 STARLINK-4140,1 53259U 22086T   24013.57240655  .00000230  00000-0  32525-4 0  9992,2 53259  53.2163 122.7834 0001362  80.1292 279.9853 15.08851530 82398,6917.845,95.437,540.652,538.768,0.0
53259.0,STARLINK-4140,PAYLOAD,2024-01-14 11:59:40,15.08840967,0.0001289,53.2162,118.6202,74.9724,285.141,0.00010105,1.321e-05,0.0,0 STARLINK-4140,1 53259U 22086T   24014.49977252  .00001321  00000-0  10105-3 0  9995,2 53259  53.2162 118.6202 0001289  74.9724 285.1410 15.08840967 82355,6917.877,95.437,540.634,538.851,0.0
53259.0,STARLINK-4140,PAYLOAD,2024-01-15 13:25:49,15.08857859,0.0001312,53.2167,113.8596,97.8601,262.254,0.00033085,4.984e-05,0.0,0 STARLINK-4140,1 53259U 22086T   24015.55960414  .00004984  00000-0  33085-3 0  9995,2 53259  53.2167 113.8596 0001312  97.8601 262.2540 15.08857859 82693,6917.826,95.436,540.598,538.783,0.0
